$$SOE
2461295.500000000, A.D. 2026-Sep-12 00:00:00.0000, -2.231810833491243E+08, -2.057500531937870E+08, -1.510746617781795E+08,
2461302.500000000, A.D. 2026-Sep-19 00:00:00.0000, -2.166752178965736E+08, -2.160596022162775E+08, -1.514032420602560E+08,
2461309.500000000, A.D. 2026-Sep-26 00:00:00.0000, -2.099049884152599E+08, -2.261056160301968E+08, -1.515471138146732E+08,
2461316.500000000, A.D. 2026-Oct-03 00:00:00.0000, -2.028838297441418E+08, -2.358814147568913E+08, -1.515098373009616E+08,
2461323.500000000, A.D. 2026-Oct-10 00:00:00.0000, -1.956249975008574E+08, -2.453809689844203E+08, -1.512950883412738E+08,
2461330.500000000, A.D. 2026-Oct-17 00:00:00.0000, -1.881415487632864E+08, -2.545988664951715E+08, -1.509066407489327E+08,
2461337.500000000, A.D. 2026-Oct-24 00:00:00.0000, -1.804463258300986E+08, -2.635302795911342E+08, -1.503483501666629E+08,
2461344.500000000, A.D. 2026-Oct-31 00:00:00.0000, -1.725519426987845E+08, -2.721709332696609E+08, -1.496241392753558E+08,
2461351.500000000, A.D. 2026-Nov-07 00:00:00.0000, -1.644707736683621E+08, -2.805170743272094E+08, -1.487379843380733E+08,
2461358.500000000, A.D. 2026-Nov-14 00:00:00.0000, -1.562149436232915E+08, -2.885654406241983E+08, -1.476939029602413E+08,
2461365.500000000, A.D. 2026-Nov-21 00:00:00.0000, -1.477963215798754E+08, -2.963132299216247E+08, -1.464959427757759E+08,
2461372.500000000, A.D. 2026-Nov-28 00:00:00.0000, -1.392265182751282E+08, -3.037580713662831E+08, -1.451481711437657E+08,
2461379.500000000, A.D. 2026-Dec-05 00:00:00.0000, -1.305168839753094E+08, -3.108980003309472E+08, -1.436546661734571E+08,
2461386.500000000, A.D. 2026-Dec-12 00:00:00.0000, -1.216785061522831E+08, -3.177314335308970E+08, -1.420195087718261E+08,
2461393.500000000, A.D. 2026-Dec-19 00:00:00.0000, -1.127222087424541E+08, -3.242571444258899E+08, -1.402467754735085E+08,
2461400.500000000, A.D. 2026-Dec-26 00:00:00.0000, -1.036585529714965E+08, -3.304742397774786E+08, -1.383405320454284E+08,
2461407.500000000, A.D. 2027-Jan-02 00:00:00.0000, -9.449783932293025E+07, -3.363821375435322E+08, -1.363048278436159E+08,
2461414.500000000, A.D. 2027-Jan-09 00:00:00.0000, -8.525011039994518E+07, -3.419805460722085E+08, -1.341436908709481E+08,
2461421.500000000, A.D. 2027-Jan-16 00:00:00.0000, -7.592515452400440E+07, -3.472694445627767E+08, -1.318611234820000E+08,
2461428.500000000, A.D. 2027-Jan-23 00:00:00.0000, -6.653250991588885E+07, -3.522490648042110E+08, -1.294610986900086E+08,
2461435.500000000, A.D. 2027-Jan-30 00:00:00.0000, -5.708146917498560E+07, -3.569198742061560E+08, -1.269475570476329E+08,
2461442.500000000, A.D. 2027-Feb-06 00:00:00.0000, -4.758108354588327E+07, -3.612825597453341E+08, -1.243244040659200E+08,
2461449.500000000, A.D. 2027-Feb-13 00:00:00.0000, -3.804016735547937E+07, -3.653380115679128E+08, -1.215955079855451E+08,
2461456.500000000, A.D. 2027-Feb-20 00:00:00.0000, -2.846730491516137E+07, -3.690873069963632E+08, -1.187646977067368E+08,
2461463.500000000, A.D. 2027-Feb-27 00:00:00.0000, -1.887085842925437E+07, -3.725316981112982E+08, -1.158357612305142E+08,
2461470.500000000, A.D. 2027-Mar-06 00:00:00.0000, -9.258973836173350E+06, -3.756726009446387E+08, -1.128124446970924E+08,
2461477.500000000, A.D. 2027-Mar-13 00:00:00.0000, 3.604138646022858E+05, -3.785115841940348E+08, -1.096984516757637E+08,
2461484.500000000, A.D. 2027-Mar-20 00:00:00.0000, 9.979574710758436E+06, -3.810503582509600E+08, -1.064974426404029E+08,
2461491.500000000, A.D. 2027-Mar-27 00:00:00.0000, 1.959097753816183E+07, -3.832907650477004E+08, -1.032130346645498E+08,
2461498.500000000, A.D. 2027-Apr-03 00:00:00.0000, 2.918728363999989E+07, -3.852347687264938E+08, -9.984880133088920E+07,
2461505.500000000, A.D. 2027-Apr-10 00:00:00.0000, 3.876134041609111E+07, -3.868844470644076E+08, -9.640827283431886E+07,
2461512.500000000, A.D. 2027-Apr-17 00:00:00.0000, 4.830617506326003E+07, -3.882419836290613E+08, -9.289493626168156E+07,
2461519.500000000, A.D. 2027-Apr-24 00:00:00.0000, 5.781498841043048E+07, -3.893096606937958E+08, -8.931223604433177E+07,
2461526.500000000, A.D. 2027-May-01 00:00:00.0000, 6.728114921636763E+07, -3.900898528547416E+08, -8.566357459429955E+07,
2461533.500000000, A.D. 2027-May-08 00:00:00.0000, 7.669818925052947E+07, -3.905850205723541E+08, -8.195231307657993E+07,
2461540.500000000, A.D. 2027-May-15 00:00:00.0000, 8.605979767010170E+07, -3.907977026538122E+08, -7.818177208754621E+07,
2461547.500000000, A.D. 2027-May-22 00:00:00.0000, 9.535981313817951E+07, -3.907305102362195E+08, -7.435523229345731E+07,
2461554.500000000, A.D. 2027-May-29 00:00:00.0000, 1.045922170480949E+08, -3.903861237084990E+08, -7.047593544412592E+07,
2461561.500000000, A.D. 2027-Jun-05 00:00:00.0000, 1.137511287468972E+08, -3.897672894139337E+08, -6.654708557628864E+07,
2461568.500000000, A.D. 2027-Jun-12 00:00:00.0000, 1.228308007563786E+08, -3.888768156776114E+08, -6.257185017771284E+07,
2461575.500000000, A.D. 2027-Jun-19 00:00:00.0000, 1.318256136647784E+08, -3.877175690708485E+08, -5.855336134923911E+07,
2461582.500000000, A.D. 2027-Jun-26 00:00:00.0000, 1.407300709713367E+08, -3.862924711522510E+08, -5.449471700361399E+07,
2461589.500000000, A.D. 2027-Jul-03 00:00:00.0000, 1.495387940171089E+08, -3.846044956565137E+08, -5.039898210502143E+07,
2461596.500000000, A.D. 2027-Jul-10 00:00:00.0000, 1.582465170389889E+08, -3.826566661020022E+08, -4.626918994499052E+07,
2461603.500000000, A.D. 2027-Jul-17 00:00:00.0000, 1.668480823832785E+08, -3.804520538359777E+08, -4.210834345491217E+07,
2461610.500000000, A.D. 2027-Jul-24 00:00:00.0000, 1.753384360360039E+08, -3.779937765616779E+08, -3.791941656936185E+07,
2461617.500000000, A.D. 2027-Jul-31 00:00:00.0000, 1.837126238826431E+08, -3.752849970958423E+08, -3.370535565438363E+07,
2461624.500000000, A.D. 2027-Aug-07 00:00:00.0000, 1.919657884972132E+08, -3.723289211915507E+08, -2.946908088456273E+07,
2461631.500000000, A.D. 2027-Aug-14 00:00:00.0000, 2.000931641590983E+08, -3.691287946671744E+08, -2.521348737538287E+07,
2461638.500000000, A.D. 2027-Aug-21 00:00:00.0000, 2.080900707148829E+08, -3.656879031927965E+08, -2.094144639983290E+07,
2461645.500000000, A.D. 2027-Aug-28 00:00:00.0000, 2.159519097162296E+08, -3.620095735198433E+08, -1.665580690345338E+07,
2461652.500000000, A.D. 2027-Sep-04 00:00:00.0000, 2.236741616524916E+08, -3.580971736435210E+08, -1.235939700301816E+07,
2461659.500000000, A.D. 2027-Sep-11 00:00:00.0000, 2.312523828814267E+08, -3.539541125519658E+08, -8.055025392926082E+06,
2461666.500000000, A.D. 2027-Sep-18 00:00:00.0000, 2.386822023894140E+08, -3.495838402045884E+08, -3.745482722733378E+06,
2461673.500000000, A.D. 2027-Sep-25 00:00:00.0000, 2.459593186083636E+08, -3.449898478096573E+08, 5.664570285706222E+05,
2461680.500000000, A.D. 2027-Oct-02 00:00:00.0000, 2.530794963628069E+08, -3.401756683663868E+08, 4.878035178433001E+06,
2461687.500000000, A.D. 2027-Oct-09 00:00:00.0000, 2.600385639680742E+08, -3.351448774690799E+08, 9.186506965579465E+06,
2461694.500000000, A.D. 2027-Oct-16 00:00:00.0000, 2.668324105416453E+08, -3.299010944212204E+08, 1.348914016451229E+07,
2461701.500000000, A.D. 2027-Oct-23 00:00:00.0000, 2.734569837879264E+08, -3.244479836589055E+08, 1.778321366621488E+07,
2461708.500000000, A.D. 2027-Oct-30 00:00:00.0000, 2.799082886330088E+08, -3.187892558692979E+08, 2.206601604172577E+07,
2461715.500000000, A.D. 2027-Nov-06 00:00:00.0000, 2.861823855474769E+08, -3.129286676744114E+08, 2.633484428902040E+07,
2461722.500000000, A.D. 2027-Nov-13 00:00:00.0000, 2.922753865713434E+08, -3.068700219548227E+08, 3.058700277705973E+07,
2461729.500000000, A.D. 2027-Nov-20 00:00:00.0000, 2.981834519416826E+08, -3.006171709958328E+08, 3.481980194327193E+07,
2461736.500000000, A.D. 2027-Nov-27 00:00:00.0000, 3.039027889403368E+08, -2.941740194887460E+08, 3.903055683941525E+07,
2461743.500000000, A.D. 2027-Dec-04 00:00:00.0000, 3.094296509379586E+08, -2.875445264713959E+08, 4.321658578701259E+07,
2461750.500000000, A.D. 2027-Dec-11 00:00:00.0000, 3.147603360836189E+08, -2.807327071689373E+08, 4.737520911443433E+07,
2461757.500000000, A.D. 2027-Dec-18 00:00:00.0000, 3.198911859167696E+08, -2.737426350703327E+08, 5.150374792282433E+07,
2461764.500000000, A.D. 2027-Dec-25 00:00:00.0000, 3.248185840582957E+08, -2.665784442403657E+08, 5.559952286745317E+07,
2461771.500000000, A.D. 2028-Jan-01 00:00:00.0000, 3.295389550283965E+08, -2.592443318529874E+08, 5.965985295362768E+07,
$$EOE